{"type": "FeatureCollection", "features": [{"type": "Feature", "properties": {"norad_id": 22490, "name": "SCD 1", "group": "resource", "lat": 19.775211827003496, "lon": 33.905266143964155, "alt_km": 761.9731338005513, "timestamp": "2025-12-02T06:27:52.677408+00:00", "meta": {"OBJECT_NAME": "SCD 1", "OBJECT_ID": "1993-009B", "EPOCH": "2025-12-01T08:49:42.756672", "MEAN_MOTION": 14.45985632, "ECCENTRICITY": 0.0041904, "INCLINATION": 24.971, "RA_OF_ASC_NODE": 348.8843, "ARG_OF_PERICENTER": 204.0887, "MEAN_ANOMALY": 187.0518, "EPHEMERIS_TYPE": 0, "CLASSIFICATION_TYPE": "U", "NORAD_CAT_ID": 22490, "ELEMENT_SET_NO": 999, "REV_AT_EPOCH": 73245, "BSTAR": 0.0001059001, "MEAN_MOTION_DOT": 5.74e-06, "MEAN_MOTION_DDOT": 0}, "tle": {"line1": "1 22490U 93009B   25335.36785598  .00000574  00000+0  10590-3 0  9990", "line2": "2 22490  24.9710 348.8843 0041904 204.0887 187.0518 14.45985632732455"}}, "geometry": {"type": "Point", "coordinates": [33.905266143964155, 19.775211827003496]}}, {"type": "Feature", "properties": {"norad_id": 25397, "name": "TECHSAT 1B (GO-32)", "group": "resource", "lat": 29.73558703025186, "lon": 144.4293819307744, "alt_km": 808.6525861822611, "timestamp": "2025-12-02T06:27:52.677435+00:00", "meta": {"OBJECT_NAME": "TECHSAT 1B (GO-32)", "OBJECT_ID": "1998-043D", "EPOCH": "2025-12-01T19:38:55.304160", "MEAN_MOTION": 14.2437191, "ECCENTRICITY": 0.0002263, "INCLINATION": 98.9914, "RA_OF_ASC_NODE": 318.7794, "ARG_OF_PERICENTER": 75.2935, "MEAN_ANOMALY": 284.8494, "EPHEMERIS_TYPE": 0, "CLASSIFICATION_TYPE": "U", "NORAD_CAT_ID": 25397, "ELEMENT_SET_NO": 999, "REV_AT_EPOCH": 42323, "BSTAR": 6.9899e-05, "MEAN_MOTION_DOT": 1.15e-06, "MEAN_MOTION_DDOT": 0}, "tle": {"line1": "1 25397U 98043D   25335.81869565  .00000115  00000+0  69899-4 0  9997", "line2": "2 25397  98.9914 318.7794 0002263  75.2935 284.8494 14.24371910423236"}}, "geometry": {"type": "Point", "coordinates": [144.4293819307744, 29.73558703025186]}}, {"type": "Feature", "properties": {"norad_id": 25504, "name": "SCD 2", "group": "resource", "lat": 23.792712488631807, "lon": -44.69217630330331, "alt_km": 736.085917705379, "timestamp": "2025-12-02T06:27:52.677451+00:00", "meta": {"OBJECT_NAME": "SCD 2", "OBJECT_ID": "1998-060A", "EPOCH": "2025-12-01T09:10:18.752736", "MEAN_MOTION": 14.45413177, "ECCENTRICITY": 0.0016767, "INCLINATION": 24.9939, "RA_OF_ASC_NODE": 211.9299, "ARG_OF_PERICENTER": 192.3142, "MEAN_ANOMALY": 329.1568, "EPHEMERIS_TYPE": 0, "CLASSIFICATION_TYPE": "U", "NORAD_CAT_ID": 25504, "ELEMENT_SET_NO": 999, "REV_AT_EPOCH": 43167, "BSTAR": 8.6174798e-05, "MEAN_MOTION_DOT": 4.91e-06, "MEAN_MOTION_DDOT": 0}, "tle": {"line1": "1 25504U 98060A   25335.38216149  .00000491  00000+0  86175-4 0  9995", "line2": "2 25504  24.9939 211.9299 0016767 192.3142 329.1568 14.45413177431678"}}, "geometry": {"type": "Point", "coordinates": [-44.69217630330331, 23.792712488631807]}}, {"type": "Feature", "properties": {"norad_id": 25757, "name": "DLR-TUBSAT", "group": "resource", "lat": 34.58930938237104, "lon": -45.56899964323717, "alt_km": 724.9824796099192, "timestamp": "2025-12-02T06:27:52.677463+00:00", "meta": {"OBJECT_NAME": "DLR-TUBSAT", "OBJECT_ID": "1999-029B", "EPOCH": "2025-12-01T20:22:57.652032", "MEAN_MOTION": 14.52350665, "ECCENTRICITY": 0.0013322, "INCLINATION": 98.6554, "RA_OF_ASC_NODE": 320.0275, "ARG_OF_PERICENTER": 227.2421, "MEAN_ANOMALY": 132.7653, "EPHEMERIS_TYPE": 0, "CLASSIFICATION_TYPE": "U", "NORAD_CAT_ID": 25757, "ELEMENT_SET_NO": 999, "REV_AT_EPOCH": 40460, "BSTAR": 4.915e-05, "MEAN_MOTION_DOT": 1.52e-06, "MEAN_MOTION_DDOT": 0}, "tle": {"line1": "1 25757U 99029B   25335.84927838  .00000152  00000+0  49150-4 0  9992", "line2": "2 25757  98.6554 320.0275 0013322 227.2421 132.7653 14.52350665404603"}}, "geometry": {"type": "Point", "coordinates": [-45.56899964323717, 34.58930938237104]}}, {"type": "Feature", "properties": {"norad_id": 25994, "name": "TERRA", "group": "resource", "lat": 43.043006853007306, "lon": -144.13831644346104, "alt_km": 684.3412403053198, "timestamp": "2025-12-02T06:27:52.677475+00:00", "meta": {"OBJECT_NAME": "TERRA", "OBJECT_ID": "1999-068A", "EPOCH": "2025-12-01T18:52:00.717888", "MEAN_MOTION": 14.60931484, "ECCENTRICITY": 0.0003363, "INCLINATION": 97.9765, "RA_OF_ASC_NODE": 27.8716, "ARG_OF_PERICENTER": 119.9837, "MEAN_ANOMALY": 356.3412, "EPHEMERIS_TYPE": 0, "CLASSIFICATION_TYPE": "U", "NORAD_CAT_ID": 25994, "ELEMENT_SET_NO": 999, "REV_AT_EPOCH": 38078, "BSTAR": 0.00012463, "MEAN_MOTION_DOT": 5.66e-06, "MEAN_MOTION_DDOT": 0}, "tle": {"line1": "1 25994U 99068A   25335.78611942  .00000566  00000+0  12463-3 0  9992", "line2": "2 25994  97.9765  27.8716 0003363 119.9837 356.3412 14.60931484380788"}}, "geometry": {"type": "Point", "coordinates": [-144.13831644346104, 43.043006853007306]}}, {"type": "Feature", "properties": {"norad_id": 27004, "name": "MAROC-TUBSAT", "group": "resource", "lat": -61.655479234735054, "lon": 163.19947450322042, "alt_km": 991.8114738235108, "timestamp": "2025-12-02T06:27:52.677487+00:00", "meta": {"OBJECT_NAME": "MAROC-TUBSAT", "OBJECT_ID": "2001-056D", "EPOCH": "2025-12-01T16:50:04.447104", "MEAN_MOTION": 13.70252049, "ECCENTRICITY": 0.0019117, "INCLINATION": 99.7911, "RA_OF_ASC_NODE": 143.9532, "ARG_OF_PERICENTER": 289.5393, "MEAN_ANOMALY": 87.1751, "EPHEMERIS_TYPE": 0, "CLASSIFICATION_TYPE": "U", "NORAD_CAT_ID": 27004, "ELEMENT_SET_NO": 999, "REV_AT_EPOCH": 19914, "BSTAR": 3.4234e-05, "MEAN_MOTION_DOT": -1.7e-07, "MEAN_MOTION_DDOT": 0}, "tle": {"line1": "1 27004U 01056D   25335.70144036 -.00000017  00000+0  34234-4 0  9996", "line2": "2 27004  99.7911 143.9532 0019117 289.5393  87.1751 13.70252049199142"}}, "geometry": {"type": "Point", "coordinates": [163.19947450322042, -61.655479234735054]}}, {"type": "Feature", "properties": {"norad_id": 27424, "name": "AQUA", "group": "resource", "lat": -21.41446163739322, "lon": -59.69751161221297, "alt_km": 693.0674571902018, "timestamp": "2025-12-02T06:27:52.677497+00:00", "meta": {"OBJECT_NAME": "AQUA", "OBJECT_ID": "2002-022A", "EPOCH": "2025-12-01T20:56:50.404704", "MEAN_MOTION": 14.61765372, "ECCENTRICITY": 7.05e-05, "INCLINATION": 98.4022, "RA_OF_ASC_NODE": 296.5765, "ARG_OF_PERICENTER": 105.6685, "MEAN_ANOMALY": 307.2189, "EPHEMERIS_TYPE": 0, "CLASSIFICATION_TYPE": "U", "NORAD_CAT_ID": 27424, "ELEMENT_SET_NO": 999, "REV_AT_EPOCH": 25444, "BSTAR": 0.00026013, "MEAN_MOTION_DOT": 1.248e-05, "MEAN_MOTION_DDOT": 0}, "tle": {"line1": "1 27424U 02022A   25335.87280561  .00001248  00000+0  26013-3 0  9999", "line2": "2 27424  98.4022 296.5765 0000705 105.6685 307.2189 14.61765372254440"}}, "geometry": {"type": "Point", "coordinates": [-59.69751161221297, -21.41446163739322]}}, {"type": "Feature", "properties": {"norad_id": 28051, "name": "IRS-P6 (RESOURCESAT-1)", "group": "resource", "lat": 81.75771103266251, "lon": -76.61486004637578, "alt_km": 787.7432311792709, "timestamp": "2025-12-02T06:27:52.677509+00:00", "meta": {"OBJECT_NAME": "IRS-P6 (RESOURCESAT-1)", "OBJECT_ID": "2003-046A", "EPOCH": "2025-12-01T20:48:50.910624", "MEAN_MOTION": 14.36065972, "ECCENTRICITY": 0.0063564, "INCLINATION": 98.2194, "RA_OF_ASC_NODE": 16.7774, "ARG_OF_PERICENTER": 213.455, "MEAN_ANOMALY": 320.1005, "EPHEMERIS_TYPE": 0, "CLASSIFICATION_TYPE": "U", "NORAD_CAT_ID": 28051, "ELEMENT_SET_NO": 999, "REV_AT_EPOCH": 15220, "BSTAR": 9.2634e-05, "MEAN_MOTION_DOT": 2.34e-06, "MEAN_MOTION_DDOT": 0}, "tle": {"line1": "1 28051U 03046A   25335.86725591  .00000234  00000+0  92634-4 0  9996", "line2": "2 28051  98.2194  16.7774 0063564 213.4550 320.1005 14.36065972152201"}}, "geometry": {"type": "Point", "coordinates": [-76.61486004637578, 81.75771103266251]}}, {"type": "Feature", "properties": {"norad_id": 28220, "name": "SHIYAN-1 (SY-1)", "group": "resource", "lat": 70.94720493784786, "lon": -119.11245199725327, "alt_km": 476.79980908055495, "timestamp": "2025-12-02T06:27:52.677520+00:00", "meta": {"OBJECT_NAME": "SHIYAN-1 (SY-1)", "OBJECT_ID": "2004-012A", "EPOCH": "2025-12-01T17:25:15.174912", "MEAN_MOTION": 15.27700086, "ECCENTRICITY": 0.0006423, "INCLINATION": 97.8959, "RA_OF_ASC_NODE": 36.6177, "ARG_OF_PERICENTER": 6.0937, "MEAN_ANOMALY": 354.0378, "EPHEMERIS_TYPE": 0, "CLASSIFICATION_TYPE": "U", "NORAD_CAT_ID": 28220, "ELEMENT_SET_NO": 999, "REV_AT_EPOCH": 18088, "BSTAR": 0.00050712, "MEAN_MOTION_DOT": 0.00013664, "MEAN_MOTION_DDOT": 0}, "tle": {"line1": "1 28220U 04012A   25335.72587008  .00013664  00000+0  50712-3 0  9993", "line2": "2 28220  97.8959  36.6177 0006423   6.0937 354.0378 15.27700086180884"}}, "geometry": {"type": "Point", "coordinates": [-119.11245199725327, 70.94720493784786]}}, {"type": "Feature", "properties": {"norad_id": 28376, "name": "AURA", "group": "resource", "lat": 37.150304860509145, "lon": 112.81170916530992, "alt_km": 687.1425535318913, "timestamp": "2025-12-02T06:27:52.677531+00:00", "meta": {"OBJECT_NAME": "AURA", "OBJECT_ID": "2004-026A", "EPOCH": "2025-12-01T19:57:10.045728", "MEAN_MOTION": 14.60903177, "ECCENTRICITY": 0.0001064, "INCLINATION": 98.3168, "RA_OF_ASC_NODE": 286.0085, "ARG_OF_PERICENTER": 89.7907, "MEAN_ANOMALY": 270.3415, "EPHEMERIS_TYPE": 0, "CLASSIFICATION_TYPE": "U", "NORAD_CAT_ID": 28376, "ELEMENT_SET_NO": 999, "REV_AT_EPOCH": 13739, "BSTAR": 0.00026623, "MEAN_MOTION_DOT": 1.255e-05, "MEAN_MOTION_DDOT": 0}, "tle": {"line1": "1 28376U 04026A   25335.83136627  .00001255  00000+0  26623-3 0  9996", "line2": "2 28376  98.3168 286.0085 0001064  89.7907 270.3415 14.60903177137396"}}, "geometry": {"type": "Point", "coordinates": [112.81170916530992, 37.150304860509145]}}]}